{
  "type": "FeatureCollection",
  "features": [
    {
      "type": "Feature",
      "properties": {
        "norad_id": 66909,
        "name": "SILVERSAT",
        "group": "stations",
        "lat": -25.737117962889098,
        "lon": 47.02000966313186,
        "alt_km": 406.9796257784483,
        "timestamp": "2025-12-27T09:28:55.219166+00:00",
        "meta_object_name": "SILVERSAT",
        "meta_object_id": "1998-067XV",
        "meta_epoch": "2025-12-26T12:00:46.911744",
        "meta_mean_motion": 15.53512588,
        "meta_eccentricity": 0.0003773,
        "meta_inclination": 51.6312,
        "meta_ra_of_asc_node": 73.9315,
        "meta_arg_of_pericenter": 313.4073,
        "meta_mean_anomaly": 46.6603,
        "meta_ephemeris_type": 0,
        "meta_classification_type": "U",
        "meta_norad_cat_id": 66909,
        "meta_element_set_no": 999,
        "meta_rev_at_epoch": 375,
        "meta_bstar": 0.0010737,
        "meta_mean_motion_dot": 0.00069652,
        "meta_mean_motion_ddot": 0,
        "tle_line1": "1 66909U 98067XV  25360.50054296  .00069652  00000+0  10737-2 0  9994",
        "tle_line2": "2 66909  51.6312  73.9315 0003773 313.4073  46.6603 15.53512588  3752"
      },
      "geometry": {
        "type": "Point",
        "coordinates": [
          47.02000966313186,
          -25.737117962889098
        ]
      }
    },
    {
      "type": "Feature",
      "properties": {
        "norad_id": 66910,
        "name": "1998-067XW",
        "group": "stations",
        "lat": -19.421733254365375,
        "lon": 53.23245360606904,
        "alt_km": 407.5293701546725,
        "timestamp": "2025-12-27T09:28:55.219178+00:00",
        "meta_object_name": "1998-067XW",
        "meta_object_id": "1998-067XW",
        "meta_epoch": "2025-12-26T15:03:47.074752",
        "meta_mean_motion": 15.53436341,
        "meta_eccentricity": 0.0003732,
        "meta_inclination": 51.6301,
        "meta_ra_of_asc_node": 73.2786,
        "meta_arg_of_pericenter": 284.7259,
        "meta_mean_anomaly": 75.3317,
        "meta_ephemeris_type": 0,
        "meta_classification_type": "U",
        "meta_norad_cat_id": 66910,
        "meta_element_set_no": 999,
        "meta_rev_at_epoch": 377,
        "meta_bstar": 0.0011547,
        "meta_mean_motion_dot": 0.00074776,
        "meta_mean_motion_ddot": 0,
        "tle_line1": "1 66910U 98067XW  25360.62762818  .00074776  00000+0  11547-2 0  9998",
        "tle_line2": "2 66910  51.6301  73.2786 0003732 284.7259  75.3317 15.53436341  3773"
      },
      "geometry": {
        "type": "Point",
        "coordinates": [
          53.23245360606904,
          -19.421733254365375
        ]
      }
    },
    {
      "type": "Feature",
      "properties": {
        "norad_id": 66911,
        "name": "1998-067XX",
        "group": "stations",
        "lat": 0.6026388911350361,
        "lon": 69.87808650599861,
        "alt_km": 404.4061627271776,
        "timestamp": "2025-12-27T09:28:55.219189+00:00",
        "meta_object_name": "1998-067XX",
        "meta_object_id": "1998-067XX",
        "meta_epoch": "2025-12-26T11:52:19.081056",
        "meta_mean_motion": 15.5396914,
        "meta_eccentricity": 0.0003493,
        "meta_inclination": 51.6301,
        "meta_ra_of_asc_node": 73.8915,
        "meta_arg_of_pericenter": 292.742,
        "meta_mean_anomaly": 67.3201,
        "meta_ephemeris_type": 0,
        "meta_classification_type": "U",
        "meta_norad_cat_id": 66911,
        "meta_element_set_no": 999,
        "meta_rev_at_epoch": 374,
        "meta_bstar": 0.0011709,
        "meta_mean_motion_dot": 0.00077346,
        "meta_mean_motion_ddot": 0,
        "tle_line1": "1 66911U 98067XX  25360.49466529  .00077346  00000+0  11709-2 0  9990",
        "tle_line2": "2 66911  51.6301  73.8915 0003493 292.7420  67.3201 15.53969140  3745"
      },
      "geometry": {
        "type": "Point",
        "coordinates": [
          69.87808650599861,
          0.6026388911350361
        ]
      }
    },
    {
      "type": "Feature",
      "properties": {
        "norad_id": 66912,
        "name": "1998-067XY",
        "group": "stations",
        "lat": -51.14215852599067,
        "lon": -9.95171146041468,
        "alt_km": 411.5170997998239,
        "timestamp": "2025-12-27T09:28:55.219199+00:00",
        "meta_object_name": "1998-067XY",
        "meta_object_id": "1998-067XY",
        "meta_epoch": "2025-12-26T12:12:45.084960",
        "meta_mean_motion": 15.52489248,
        "meta_eccentricity": 0.0003823,
        "meta_inclination": 51.6314,
        "meta_ra_of_asc_node": 73.9869,
        "meta_arg_of_pericenter": 301.1826,
        "meta_mean_anomaly": 58.8789,
        "meta_ephemeris_type": 0,
        "meta_classification_type": "U",
        "meta_norad_cat_id": 66912,
        "meta_element_set_no": 999,
        "meta_rev_at_epoch": 374,
        "meta_bstar": 0.00078444,
        "meta_mean_motion_dot": 0.00048771,
        "meta_mean_motion_ddot": 0,
        "tle_line1": "1 66912U 98067XY  25360.50885515  .00048771  00000+0  78444-3 0  9993",
        "tle_line2": "2 66912  51.6314  73.9869 0003823 301.1826  58.8789 15.52489248  3742"
      },
      "geometry": {
        "type": "Point",
        "coordinates": [
          -9.95171146041468,
          -51.14215852599067
        ]
      }
    }
  ]
}